$$SOE
2460147.500000000, A.D. 2023-Jul-22 00:00:00.0000, -5.853234338076763E+08, -3.634620463648289E+09, 1.983335666352068E+09,
2460154.500000000, A.D. 2023-Jul-29 00:00:00.0000, -5.815031411552485E+08, -3.635037060183447E+09, 1.983760129747303E+09,
2460161.500000000, A.D. 2023-Aug-05 00:00:00.0000, -5.776825457317849E+08, -3.635451266600195E+09, 1.984183277161652E+09,
2460168.500000000, A.D. 2023-Aug-12 00:00:00.0000, -5.738616523866599E+08, -3.635863084645325E+09, 1.984605108497023E+09,
2460175.500000000, A.D. 2023-Aug-19 00:00:00.0000, -5.700404656647346E+08, -3.636272516557294E+09, 1.985025623626776E+09,
2460182.500000000, A.D. 2023-Aug-26 00:00:00.0000, -5.662189898056037E+08, -3.636679564976229E+09, 1.985444822401799E+09,
2460189.500000000, A.D. 2023-Sep-02 00:00:00.0000, -5.623972287658428E+08, -3.637084232925234E+09, 1.985862704651933E+09,
2460196.500000000, A.D. 2023-Sep-09 00:00:00.0000, -5.585751862276309E+08, -3.637486523904256E+09, 1.986279270176021E+09,
2460203.500000000, A.D. 2023-Sep-16 00:00:00.0000, -5.547528654253215E+08, -3.637886442154464E+09, 1.986694518700488E+09,
2460210.500000000, A.D. 2023-Sep-23 00:00:00.0000, -5.509302683735551E+08, -3.638283992806396E+09, 1.987108449791716E+09,
2460217.500000000, A.D. 2023-Sep-30 00:00:00.0000, -5.471073948364737E+08, -3.638679180721147E+09, 1.987521062850810E+09,
2460224.500000000, A.D. 2023-Oct-07 00:00:00.0000, -5.432842433917848E+08, -3.639072008567402E+09, 1.987932357362384E+09,
2460231.500000000, A.D. 2023-Oct-14 00:00:00.0000, -5.394608135497702E+08, -3.639462477447516E+09, 1.988342333031406E+09,
2460238.500000000, A.D. 2023-Oct-21 00:00:00.0000, -5.356371056986386E+08, -3.639850588469889E+09, 1.988750989643130E+09,
2460245.500000000, A.D. 2023-Oct-28 00:00:00.0000, -5.318131203005773E+08, -3.640236343007525E+09, 1.989158326961687E+09,
2460252.500000000, A.D. 2023-Nov-04 00:00:00.0000, -5.279888575885357E+08, -3.640619742413189E+09, 1.989564344719298E+09,
2460259.500000000, A.D. 2023-Nov-11 00:00:00.0000, -5.241643175861731E+08, -3.641000787790988E+09, 1.989969042631052E+09,
2460266.500000000, A.D. 2023-Nov-18 00:00:00.0000, -5.203395002314745E+08, -3.641379479888741E+09, 1.990372420410114E+09,
2460273.500000000, A.D. 2023-Nov-25 00:00:00.0000, -5.165144055312074E+08, -3.641755819088530E+09, 1.990774477778764E+09,
2460280.500000000, A.D. 2023-Dec-02 00:00:00.0000, -5.126890337180281E+08, -3.642129805506661E+09, 1.991175214471925E+09,
2460287.500000000, A.D. 2023-Dec-09 00:00:00.0000, -5.088633853324263E+08, -3.642501439261933E+09, 1.991574630221362E+09,
2460294.500000000, A.D. 2023-Dec-16 00:00:00.0000, -5.050374609419430E+08, -3.642870720899642E+09, 1.991972724695223E+09,
2460301.500000000, A.D. 2023-Dec-23 00:00:00.0000, -5.012112601492220E+08, -3.643237651283892E+09, 1.992369497417117E+09,
2460308.500000000, A.D. 2023-Dec-30 00:00:00.0000, -4.973847812291117E+08, -3.643602229908951E+09, 1.992764947873270E+09,
2460315.500000000, A.D. 2024-Jan-06 00:00:00.0000, -4.935580231672696E+08, -3.643964453990364E+09, 1.993159075777256E+09,
2460322.500000000, A.D. 2024-Jan-13 00:00:00.0000, -4.897309869275206E+08, -3.644324320142731E+09, 1.993551881053399E+09,
2460329.500000000, A.D. 2024-Jan-20 00:00:00.0000, -4.859036747244185E+08, -3.644681825559574E+09, 1.993943363678422E+09,
2460336.500000000, A.D. 2024-Jan-27 00:00:00.0000, -4.820760893297440E+08, -3.645036968043089E+09, 1.994333523620524E+09,
2460343.500000000, A.D. 2024-Feb-03 00:00:00.0000, -4.782482338413126E+08, -3.645389745832406E+09, 1.994722360837352E+09,
2460350.500000000, A.D. 2024-Feb-10 00:00:00.0000, -4.744201116367295E+08, -3.645740157521469E+09, 1.995109875283492E+09,
2460357.500000000, A.D. 2024-Feb-17 00:00:00.0000, -4.705917263733903E+08, -3.646088202058619E+09, 1.995496066915169E+09,
2460364.500000000, A.D. 2024-Feb-24 00:00:00.0000, -4.667630819987935E+08, -3.646433878813078E+09, 1.995880935689964E+09,
2460371.500000000, A.D. 2024-Mar-02 00:00:00.0000, -4.629341827418125E+08, -3.646777187740868E+09, 1.996264481556065E+09,
2460378.500000000, A.D. 2024-Mar-09 00:00:00.0000, -4.591050329461198E+08, -3.647118129713006E+09, 1.996646704413116E+09,
2460385.500000000, A.D. 2024-Mar-16 00:00:00.0000, -4.552756363504615E+08, -3.647456706808730E+09, 1.997027604024469E+09,
2460392.500000000, A.D. 2024-Mar-23 00:00:00.0000, -4.514459949193558E+08, -3.647792921464684E+09, 1.997407179980936E+09,
2460399.500000000, A.D. 2024-Mar-30 00:00:00.0000, -4.476161094653624E+08, -3.648126774506882E+09, 1.997785431919388E+09,
2460406.500000000, A.D. 2024-Apr-06 00:00:00.0000, -4.437859818068889E+08, -3.648458265433055E+09, 1.998162359697518E+09,
2460413.500000000, A.D. 2024-Apr-13 00:00:00.0000, -4.399556149104020E+08, -3.648787394108940E+09, 1.998537963267392E+09,
2460420.500000000, A.D. 2024-Apr-20 00:00:00.0000, -4.361250119691933E+08, -3.649114161201884E+09, 1.998912242553875E+09,
2460427.500000000, A.D. 2024-Apr-27 00:00:00.0000, -4.322941759357167E+08, -3.649438567913124E+09, 1.999285197431248E+09,
2460434.500000000, A.D. 2024-May-04 00:00:00.0000, -4.284631094195825E+08, -3.649760615712046E+09, 1.999656827732528E+09,
2460441.500000000, A.D. 2024-May-11 00:00:00.0000, -4.246318147128689E+08, -3.650080306174052E+09, 2.000027133261407E+09,
2460448.500000000, A.D. 2024-May-18 00:00:00.0000, -4.208002938607623E+08, -3.650397640900145E+09, 2.000396113801197E+09,
2460455.500000000, A.D. 2024-May-25 00:00:00.0000, -4.169685487528104E+08, -3.650712621525016E+09, 2.000763769118121E+09,
2460462.500000000, A.D. 2024-Jun-01 00:00:00.0000, -4.131365811749383E+08, -3.651025249870769E+09, 2.001130098948971E+09,
2460469.500000000, A.D. 2024-Jun-08 00:00:00.0000, -4.093043925758683E+08, -3.651335528268889E+09, 2.001495102948917E+09,
2460476.500000000, A.D. 2024-Jun-15 00:00:00.0000, -4.054719831484227E+08, -3.651643459505124E+09, 2.001858780607626E+09,
2460483.500000000, A.D. 2024-Jun-22 00:00:00.0000, -4.016393512309270E+08, -3.651949045211876E+09, 2.002221131322201E+09,
2460490.500000000, A.D. 2024-Jun-29 00:00:00.0000, -3.978064951503418E+08, -3.652252284528740E+09, 2.002582154672996E+09,
2460497.500000000, A.D. 2024-Jul-06 00:00:00.0000, -3.939734148621230E+08, -3.652553175502120E+09, 2.002941850457981E+09,
2460504.500000000, A.D. 2024-Jul-13 00:00:00.0000, -3.901401114375542E+08, -3.652851716399776E+09, 2.003300218537807E+09,
2460511.500000000, A.D. 2024-Jul-20 00:00:00.0000, -3.863065863842118E+08, -3.653147905791516E+09, 2.003657258767683E+09,
2460518.500000000, A.D. 2024-Jul-27 00:00:00.0000, -3.824728414555533E+08, -3.653441742355478E+09, 2.004012970997809E+09,
2460525.500000000, A.D. 2024-Aug-03 00:00:00.0000, -3.786388786766984E+08, -3.653733224784830E+09, 2.004367355086653E+09,
2460532.500000000, A.D. 2024-Aug-10 00:00:00.0000, -3.748047004206290E+08, -3.654022351799165E+09, 2.004720410911330E+09,
2460539.500000000, A.D. 2024-Aug-17 00:00:00.0000, -3.709703094874805E+08, -3.654309122238586E+09, 2.005072138372349E+09,
2460546.500000000, A.D. 2024-Aug-24 00:00:00.0000, -3.671357091590835E+08, -3.654593535262352E+09, 2.005422537388098E+09,
2460553.500000000, A.D. 2024-Aug-31 00:00:00.0000, -3.633009031131414E+08, -3.654875590713217E+09, 2.005771607863193E+09,
2460560.500000000, A.D. 2024-Sep-07 00:00:00.0000, -3.594658948315364E+08, -3.655155289520726E+09, 2.006119349607223E+09,
2460567.500000000, A.D. 2024-Sep-14 00:00:00.0000, -3.556306864175273E+08, -3.655432633147302E+09, 2.006465762277227E+09,
2460574.500000000, A.D. 2024-Sep-21 00:00:00.0000, -3.517952788506638E+08, -3.655707621664296E+09, 2.006810845563461E+09,
2460581.500000000, A.D. 2024-Sep-28 00:00:00.0000, -3.479596741669096E+08, -3.655980253685491E+09, 2.007154599399252E+09,
2460588.500000000, A.D. 2024-Oct-05 00:00:00.0000, -3.441238758942797E+08, -3.656250528156229E+09, 2.007497023858316E+09,
2460595.500000000, A.D. 2024-Oct-12 00:00:00.0000, -3.402878881046075E+08, -3.656518445017949E+09, 2.007838119016073E+09,
2460602.500000000, A.D. 2024-Oct-19 00:00:00.0000, -3.364517148323674E+08, -3.656784005018801E+09, 2.008177884913369E+09,
2460609.500000000, A.D. 2024-Oct-26 00:00:00.0000, -3.326153598928891E+08, -3.657047209471537E+09, 2.008516321560062E+09,
2460616.500000000, A.D. 2024-Nov-02 00:00:00.0000, -3.287788268425292E+08, -3.657308060106844E+09, 2.008853428942759E+09,
2460623.500000000, A.D. 2024-Nov-09 00:00:00.0000, -3.249421189840671E+08, -3.657566559001106E+09, 2.009189207029539E+09,
2460630.500000000, A.D. 2024-Nov-16 00:00:00.0000, -3.211052393912670E+08, -3.657822708578083E+09, 2.009523655769397E+09,
2460637.500000000, A.D. 2024-Nov-23 00:00:00.0000, -3.172681909055233E+08, -3.658076511734077E+09, 2.009856775078049E+09,
2460644.500000000, A.D. 2024-Nov-30 00:00:00.0000, -3.134309758961669E+08, -3.658327972129010E+09, 2.010188564787618E+09,
2460651.500000000, A.D. 2024-Dec-07 00:00:00.0000, -3.095935953648744E+08, -3.658577094222546E+09, 2.010519024556199E+09,
2460658.500000000, A.D. 2024-Dec-14 00:00:00.0000, -3.057560480827268E+08, -3.658823881831123E+09, 2.010848153900595E+09,
2460665.500000000, A.D. 2024-Dec-21 00:00:00.0000, -3.019183320783933E+08, -3.659068336446517E+09, 2.011175952463668E+09,
2460672.500000000, A.D. 2024-Dec-28 00:00:00.0000, -2.980804465049291E+08, -3.659310458283185E+09, 2.011502420093036E+09,
2460679.500000000, A.D. 2025-Jan-04 00:00:00.0000, -2.942423912878880E+08, -3.659550247678143E+09, 2.011827556687304E+09,
2460686.500000000, A.D. 2025-Jan-11 00:00:00.0000, -2.904041663759287E+08, -3.659787705183501E+09, 2.012151362112748E+09,
2460693.500000000, A.D. 2025-Jan-18 00:00:00.0000, -2.865657715107260E+08, -3.660022831270423E+09, 2.012473836199718E+09,
2460700.500000000, A.D. 2025-Jan-25 00:00:00.0000, -2.827272062725661E+08, -3.660255626119044E+09, 2.012794978757915E+09,
2460707.500000000, A.D. 2025-Feb-01 00:00:00.0000, -2.788884702119902E+08, -3.660486089524485E+09, 2.013114789590958E+09,
$$EOE